{
  "type": "FeatureCollection",
  "features": [
    {
      "type": "Feature",
      "properties": {
        "norad_id": 31898,
        "name": "FENGYUN 1C DEB",
        "group": "fengyun-1c-debris",
        "lat": 42.636985967908586,
        "lon": -155.93565597102102,
        "alt_km": 763.3109102771195,
        "timestamp": "2025-12-13T08:49:15.971238+00:00",
        "meta_object_name": "FENGYUN 1C DEB",
        "meta_object_id": "1999-025CKZ",
        "meta_epoch": "2025-12-09T09:45:56.221344",
        "meta_mean_motion": 14.68362334,
        "meta_eccentricity": 0.01439261,
        "meta_inclination": 98.7065,
        "meta_ra_of_asc_node": 207.9611,
        "meta_arg_of_pericenter": 229.9634,
        "meta_mean_anomaly": 128.887,
        "meta_ephemeris_type": 0,
        "meta_classification_type": "U",
        "meta_norad_cat_id": 31898,
        "meta_element_set_no": 999,
        "meta_rev_at_epoch": 65663,
        "meta_bstar": 0.0015942515,
        "meta_mean_motion_dot": 0.00010733,
        "meta_mean_motion_ddot": 0,
        "tle_line1": "1 31898U 99025CKZ 25343.40690071  .00010733  00000+0  15943-2 0  9995",
        "tle_line2": "2 31898  98.7065 207.9611 0143926 229.9634 128.8870 14.68362334656632"
      },
      "geometry": {
        "type": "Point",
        "coordinates": [
          -155.93565597102102,
          42.636985967908586
        ]
      }
    },
    {
      "type": "Feature",
      "properties": {
        "norad_id": 31899,
        "name": "FENGYUN 1C DEB",
        "group": "fengyun-1c-debris",
        "lat": -77.48407698774749,
        "lon": 155.66219353688862,
        "alt_km": 1004.2968599633969,
        "timestamp": "2025-12-13T08:49:15.971249+00:00",
        "meta_object_name": "FENGYUN 1C DEB",
        "meta_object_id": "1999-025CLA",
        "meta_epoch": "2025-12-07T00:33:12.035808",
        "meta_mean_motion": 13.83487543,
        "meta_eccentricity": 0.01833749,
        "meta_inclination": 102.0834,
        "meta_ra_of_asc_node": 42.3236,
        "meta_arg_of_pericenter": 171.0464,
        "meta_mean_anomaly": 189.4024,
        "meta_ephemeris_type": 0,
        "meta_classification_type": "U",
        "meta_norad_cat_id": 31899,
        "meta_element_set_no": 999,
        "meta_rev_at_epoch": 67485,
        "meta_bstar": 0.0022774181,
        "meta_mean_motion_dot": 2.792e-05,
        "meta_mean_motion_ddot": 0,
        "tle_line1": "1 31899U 99025CLA 25341.02305597  .00002792  00000+0  22774-2 0  9994",
        "tle_line2": "2 31899 102.0834  42.3236 0183374 171.0464 189.4024 13.83487543674853"
      },
      "geometry": {
        "type": "Point",
        "coordinates": [
          155.66219353688862,
          -77.48407698774749
        ]
      }
    },
    {
      "type": "Feature",
      "properties": {
        "norad_id": 31901,
        "name": "FENGYUN 1C DEB",
        "group": "fengyun-1c-debris",
        "lat": 31.436274414132154,
        "lon": -56.8191712802657,
        "alt_km": 999.454450224116,
        "timestamp": "2025-12-13T08:49:15.971262+00:00",
        "meta_object_name": "FENGYUN 1C DEB",
        "meta_object_id": "1999-025CLC",
        "meta_epoch": "2025-12-11T15:19:32.999232",
        "meta_mean_motion": 13.94142436,
        "meta_eccentricity": 0.01312062,
        "meta_inclination": 98.6009,
        "meta_ra_of_asc_node": 306.8787,
        "meta_arg_of_pericenter": 192.6168,
        "meta_mean_anomaly": 167.17,
        "meta_ephemeris_type": 0,
        "meta_classification_type": "U",
        "meta_norad_cat_id": 31901,
        "meta_element_set_no": 999,
        "meta_rev_at_epoch": 63392,
        "meta_bstar": 0.00012353957,
        "meta_mean_motion_dot": 1.36e-06,
        "meta_mean_motion_ddot": 0,
        "tle_line1": "1 31901U 99025CLC 25345.63857638  .00000136  00000+0  12354-3 0  9991",
        "tle_line2": "2 31901  98.6009 306.8787 0131206 192.6168 167.1700 13.94142436633925"
      },
      "geometry": {
        "type": "Point",
        "coordinates": [
          -56.8191712802657,
          31.436274414132154
        ]
      }
    },
    {
      "type": "Feature",
      "properties": {
        "norad_id": 31902,
        "name": "FENGYUN 1C DEB",
        "group": "fengyun-1c-debris",
        "lat": 51.38841372308308,
        "lon": 158.0263512416433,
        "alt_km": 686.7860544628329,
        "timestamp": "2025-12-13T08:49:15.971273+00:00",
        "meta_object_name": "FENGYUN 1C DEB",
        "meta_object_id": "1999-025CLD",
        "meta_epoch": "2025-12-10T10:05:10.584960",
        "meta_mean_motion": 14.23274205,
        "meta_eccentricity": 0.01806752,
        "meta_inclination": 98.5073,
        "meta_ra_of_asc_node": 324.3737,
        "meta_arg_of_pericenter": 155.9063,
        "meta_mean_anomaly": 359.8247,
        "meta_ephemeris_type": 0,
        "meta_classification_type": "U",
        "meta_norad_cat_id": 31902,
        "meta_element_set_no": 999,
        "meta_rev_at_epoch": 64758,
        "meta_bstar": 0.00029249219,
        "meta_mean_motion_dot": 7.4e-06,
        "meta_mean_motion_ddot": 0,
        "tle_line1": "1 31902U 99025CLD 25344.42026140  .00000740  00000+0  29249-3 0  9996",
        "tle_line2": "2 31902  98.5073 324.3737 0180675 155.9063 359.8247 14.23274205647582"
      },
      "geometry": {
        "type": "Point",
        "coordinates": [
          158.0263512416433,
          51.38841372308308
        ]
      }
    },
    {
      "type": "Feature",
      "properties": {
        "norad_id": 31903,
        "name": "FENGYUN 1C DEB",
        "group": "fengyun-1c-debris",
        "lat": 60.771121211123365,
        "lon": -41.117530279485685,
        "alt_km": 604.2791058189914,
        "timestamp": "2025-12-13T08:49:15.971283+00:00",
        "meta_object_name": "FENGYUN 1C DEB",
        "meta_object_id": "1999-025CLE",
        "meta_epoch": "2025-12-11T22:00:57.506400",
        "meta_mean_motion": 14.60476949,
        "meta_eccentricity": 0.0130126,
        "meta_inclination": 99.2744,
        "meta_ra_of_asc_node": 334.24,
        "meta_arg_of_pericenter": 38.4051,
        "meta_mean_anomaly": 322.6322,
        "meta_ephemeris_type": 0,
        "meta_classification_type": "U",
        "meta_norad_cat_id": 31903,
        "meta_element_set_no": 999,
        "meta_rev_at_epoch": 97383,
        "meta_bstar": 0.0011407,
        "meta_mean_motion_dot": 6.173e-05,
        "meta_mean_motion_ddot": 0,
        "tle_line1": "1 31903U 99025CLE 25345.91733225  .00006173  00000+0  11407-2 0  9993",
        "tle_line2": "2 31903  99.2744 334.2400 0130126  38.4051 322.6322 14.60476949973833"
      },
      "geometry": {
        "type": "Point",
        "coordinates": [
          -41.117530279485685,
          60.771121211123365
        ]
      }
    },
    {
      "type": "Feature",
      "properties": {
        "norad_id": 31905,
        "name": "FENGYUN 1C DEB",
        "group": "fengyun-1c-debris",
        "lat": 79.24327730422593,
        "lon": -158.30407200179624,
        "alt_km": 633.2570258177193,
        "timestamp": "2025-12-13T08:49:15.971295+00:00",
        "meta_object_name": "FENGYUN 1C DEB",
        "meta_object_id": "1999-025CLG",
        "meta_epoch": "2025-12-11T16:10:20.111232",
        "meta_mean_motion": 14.33095365,
        "meta_eccentricity": 0.01968834,
        "meta_inclination": 99.1512,
        "meta_ra_of_asc_node": 321.858,
        "meta_arg_of_pericenter": 97.0358,
        "meta_mean_anomaly": 265.3259,
        "meta_ephemeris_type": 0,
        "meta_classification_type": "U",
        "meta_norad_cat_id": 31905,
        "meta_element_set_no": 999,
        "meta_rev_at_epoch": 96609,
        "meta_bstar": 0.00081682443,
        "meta_mean_motion_dot": 2.727e-05,
        "meta_mean_motion_ddot": 0,
        "tle_line1": "1 31905U 99025CLG 25345.67384388  .00002727  00000+0  81682-3 0  9994",
        "tle_line2": "2 31905  99.1512 321.8580 0196883  97.0358 265.3259 14.33095365966092"
      },
      "geometry": {
        "type": "Point",
        "coordinates": [
          -158.30407200179624,
          79.24327730422593
        ]
      }
    },
    {
      "type": "Feature",
      "properties": {
        "norad_id": 31906,
        "name": "FENGYUN 1C DEB",
        "group": "fengyun-1c-debris",
        "lat": 63.444958352719475,
        "lon": 102.65335788965325,
        "alt_km": 783.2646723587277,
        "timestamp": "2025-12-13T08:49:15.971306+00:00",
        "meta_object_name": "FENGYUN 1C DEB",
        "meta_object_id": "1999-025CLH",
        "meta_epoch": "2025-12-12T07:31:23.071008",
        "meta_mean_motion": 14.24637173,
        "meta_eccentricity": 0.00520265,
        "meta_inclination": 98.6929,
        "meta_ra_of_asc_node": 119.4356,
        "meta_arg_of_pericenter": 125.5331,
        "meta_mean_anomaly": 296.7754,
        "meta_ephemeris_type": 0,
        "meta_classification_type": "U",
        "meta_norad_cat_id": 31906,
        "meta_element_set_no": 999,
        "meta_rev_at_epoch": 95123,
        "meta_bstar": 0.0037699282,
        "meta_mean_motion_dot": 8.853e-05,
        "meta_mean_motion_ddot": 0,
        "tle_line1": "1 31906U 99025CLH 25346.31346147  .00008853  00000+0  37699-2 0  9992",
        "tle_line2": "2 31906  98.6929 119.4356 0052026 125.5331 296.7754 14.24637173951236"
      },
      "geometry": {
        "type": "Point",
        "coordinates": [
          102.65335788965325,
          63.444958352719475
        ]
      }
    }
  ]
}